{
    "links": {
        "self": "http://www.neowsapp.com/rest/v1/neo/3734184?api_key=iIulBulltgU6a56xZRHN4H3l9WmuAYTsLGpBGhQ2"
    },
    "id": "3734184",
    "neo_reference_id": "3734184",
    "name": "(2015 VF66)",
    "designation": "2015 VF66",
    "nasa_jpl_url": "http://ssd.jpl.nasa.gov/sbdb.cgi?sstr=3734184",
    "absolute_magnitude_h": 25.5,
    "estimated_diameter": {
        "kilometers": {
            "estimated_diameter_min": 0.0211132445,
            "estimated_diameter_max": 0.0472106499
        },
        "meters": {
            "estimated_diameter_min": 21.113244479,
            "estimated_diameter_max": 47.2106498806
        },
        "miles": {
            "estimated_diameter_min": 0.0131191578,
            "estimated_diameter_max": 0.0293353287
        },
        "feet": {
            "estimated_diameter_min": 69.2691770164,
            "estimated_diameter_max": 154.8905885541
        }
    },
    "is_potentially_hazardous_asteroid": false,
    "close_approach_data": [
        {
            "close_approach_date": "2015-11-13",
            "close_approach_date_full": "2015-Nov-13 05:20",
            "epoch_date_close_approach": 1447392000000,
            "relative_velocity": {
                "kilometers_per_second": "19.4387792933",
                "kilometers_per_hour": "69979.6054557248",
                "miles_per_hour": "43482.6054010864"
            },
            "miss_distance": {
                "astronomical": "0.0694340963",
                "lunar": "27.0098634607",
                "kilometers": "10387192.911854881",
                "miles": "6454302.3854481178"
            },
            "orbiting_body": "Earth"
        }
    ],
    "orbital_data": {
        "orbit_id": "5",
        "orbit_determination_date": "2017-04-06 08:30:46",
        "first_observation_date": "2015-11-09",
        "last_observation_date": "2015-11-14",
        "data_arc_in_days": 5,
        "observations_used": 33,
        "orbit_uncertainty": "9",
        "minimum_orbit_intersection": ".0690474",
        "jupiter_tisserand_invariant": "4.109",
        "epoch_osculation": "2457336.5",
        "eccentricity": ".3993058203488412",
        "semi_major_axis": "1.59598958961414",
        "inclination": "33.3346177452866",
        "ascending_node_longitude": "227.811460223391",
        "orbital_period": "736.4504097736735",
        "perihelion_distance": ".9587016572650552",
        "perihelion_argument": "229.5120895207822",
        "aphelion_distance": "2.233277521963224",
        "perihelion_time": "2457380.089043626045",
        "mean_anomaly": "338.6923118011453",
        "mean_motion": ".4888312847984367",
        "equinox": "J2000",
        "orbit_class": {
            "orbit_class_type": "APO",
            "orbit_class_description": "Near-Earth asteroid orbits which cross the Earth’s orbit similar to that of 1862 Apollo",
            "orbit_class_range": "a (semi-major axis) > 1.0 AU; q (perihelion) < 1.017 AU"
        }
    },
    "is_sentry_object": false
}